IRIDIUM 7               
1 24793U 97020B   25172.42817709  .00000284  00000+0  91167-4 0  9999
2 24793  86.3982 175.1343 0002590  90.9218 269.2276 14.35941865472500
IRIDIUM 5               
1 24795U 97020D   25172.46111494  .00002669  00000+0  21653-3 0  9994
2 24795  86.3887  81.7625 0110878 122.2340 238.9695 14.94383069486105
IRIDIUM 4               
1 24796U 97020E   25172.26968094  .00000283  00000+0  89128-4 0  9991
2 24796  86.3978 172.0784 0002356  92.1347 268.0120 14.36844385473056
IRIDIUM 914             
1 24836U 97030A   25172.53909964  .00000331  00000+0  96984-4 0  9990
2 24836  86.3956 180.5485 0002171 131.3712 228.7674 14.40874966607752
IRIDIUM 16              
1 24841U 97030F   25172.36644328  .00000255  00000+0  76651-4 0  9991
2 24841  86.4048 203.5191 0004323  71.7632 288.4036 14.38717251467603
IRIDIUM 911             
1 24842U 97030G   25172.47124008  .00000358  00000+0  91553-4 0  9994
2 24842  86.4473 202.2404 0016579  84.5665 275.7429 14.47643247475701
IRIDIUM 17              
1 24870U 97034B   25172.56504961  .00000283  00000+0  87352-4 0  9998
2 24870  86.3960 232.9109 0002831  57.2999 302.8471 14.37831957464216
IRIDIUM 920             
1 24871U 97034C   25172.52719864  .00000272  00000+0  77517-4 0  9995
2 24871  86.3985 212.1516 0013764  71.6026 288.6669 14.41536918467200
